start=new Date('2022-04-08T00:00:00.000Z').valueOf();
sats=[{"PERIAPSIS":"546.084","BSTAR":"0.00010817000000","INCLINATION":"53.0545","NORAD_CAT_ID":"48100","COUNTRY_CODE":"US","OBJECT_TYPE":"PAYLOAD","EPOCH":"2022-04-07T11:46:09.562944","CLASSIFICATION_TYPE":"U","EPHEMERIS_TYPE":"0","LAUNCH_DATE":"2021-04-07","OBJECT_ID":"2021-027J","RCS_SIZE":"MEDIUM","MEAN_ANOMALY":"300.4655","CENTER_NAME":"EARTH","ARG_OF_PERICENTER":"59.6496","TLE_LINE2":"2 48100  53.0545 101.0154 0001638  59.6496 300.4655 15.06398414 56832","TLE_LINE1":"1 48100U 21027J   22097.49038846  .00001330  00000-0  10817-3 0  9994","APOAPSIS":"548.353","MEAN_MOTION":"15.06398414","SITE":"AFETR","MEAN_MOTION_DOT":"0.00001330","PERIOD":"95.592","GP_ID":"200660639","MEAN_ELEMENT_THEORY":"SGP4","TIME_SYSTEM":"UTC","ECCENTRICITY":"0.00016380","FILE":"3391885","REF_FRAME":"TEME","ELEMENT_SET_NO":"999","MEAN_MOTION_DDOT":"0.0000000000000","REV_AT_EPOCH":"5683","RA_OF_ASC_NODE":"101.0154","SEMIMAJOR_AXIS":"6925.353","DECAY_DATE":null,"OBJECT_NAME":"STARLINK-2430"},{"OBJECT_ID":"2021-027K","MEAN_ANOMALY":"301.5411","RCS_SIZE":"LARGE","TLE_LINE2":"2 48101  53.0537 109.9009 0001663  58.5740 301.5411 15.06409384 56738","APOAPSIS":"548.336","TLE_LINE1":"1 48101U 21027K   22097.73916149  .00003704  00000-0  26735-3 0  9996","ARG_OF_PERICENTER":"58.5740","CENTER_NAME":"EARTH","MEAN_MOTION":"15.06409384","GP_ID":"200700005","MEAN_ELEMENT_THEORY":"SGP4","SITE":"AFETR","PERIOD":"95.592","MEAN_MOTION_DOT":"0.00003704","PERIAPSIS":"546.033","BSTAR":"0.00026735000000","INCLINATION":"53.0537","COUNTRY_CODE":"US","OBJECT_TYPE":"PAYLOAD","EPOCH":"2022-04-07T17:44:23.552736","NORAD_CAT_ID":"48101","LAUNCH_DATE":"2021-04-07","CLASSIFICATION_TYPE":"U","EPHEMERIS_TYPE":"0","REV_AT_EPOCH":"5673","MEAN_MOTION_DDOT":"0.0000000000000","RA_OF_ASC_NODE":"109.9009","DECAY_DATE":null,"SEMIMAJOR_AXIS":"6925.320","OBJECT_NAME":"STARLINK-2436","ECCENTRICITY":"0.00016630","FILE":"3392478","TIME_SYSTEM":"UTC","REF_FRAME":"TEME","ELEMENT_SET_NO":"999"},{"GP_ID":"200667053","MEAN_ELEMENT_THEORY":"SGP4","SITE":"AFETR","PERIOD":"95.592","MEAN_MOTION_DOT":"0.00000609","MEAN_MOTION":"15.06406690","TLE_LINE2":"2 48102  53.0557 100.0022 0001454  54.7017 305.4108 15.06406690 56464","APOAPSIS":"548.200","TLE_LINE1":"1 48102U 21027L   22097.71523161  .00000609  00000-0  59740-4 0  9997","CENTER_NAME":"EARTH","ARG_OF_PERICENTER":"54.7017","OBJECT_ID":"2021-027L","MEAN_ANOMALY":"305.4108","RCS_SIZE":"LARGE","LAUNCH_DATE":"2021-04-07","CLASSIFICATION_TYPE":"U","EPHEMERIS_TYPE":"0","OBJECT_TYPE":"PAYLOAD","COUNTRY_CODE":"US","EPOCH":"2022-04-07T17:09:56.011104","NORAD_CAT_ID":"48102","INCLINATION":"53.0557","PERIAPSIS":"546.186","BSTAR":"0.00005974000000","OBJECT_NAME":"STARLINK-2437","DECAY_DATE":null,"SEMIMAJOR_AXIS":"6925.328","RA_OF_ASC_NODE":"100.0022","REV_AT_EPOCH":"5646","MEAN_MOTION_DDOT":"0.0000000000000","REF_FRAME":"TEME","ELEMENT_SET_NO":"999","FILE":"3391963","ECCENTRICITY":"0.00014540","TIME_SYSTEM":"UTC"},{"RA_OF_ASC_NODE":"99.9558","REV_AT_EPOCH":"5646","MEAN_MOTION_DDOT":"0.0000000000000","OBJECT_NAME":"STARLINK-2438","DECAY_DATE":null,"SEMIMAJOR_AXIS":"6925.340","ECCENTRICITY":"0.00016300","FILE":"3391972","TIME_SYSTEM":"UTC","ELEMENT_SET_NO":"999","REF_FRAME":"TEME","APOAPSIS":"548.334","TLE_LINE1":"1 48103U 21027M   22097.72260199  .00000476  00000-0  50844-4 0  9996","TLE_LINE2":"2 48103  53.0531  99.9558 0001630  65.1116 295.0043 15.06402794 56462","CENTER_NAME":"EARTH","ARG_OF_PERICENTER":"65.1116","MEAN_ANOMALY":"295.0043","RCS_SIZE":"LARGE","OBJECT_ID":"2021-027M","MEAN_ELEMENT_THEORY":"SGP4","GP_ID":"200667068","PERIOD":"95.592","MEAN_MOTION_DOT":"0.00000476","SITE":"AFETR","MEAN_MOTION":"15.06402794","INCLINATION":"53.0531","BSTAR":"0.00005084400000","PERIAPSIS":"546.076","LAUNCH_DATE":"2021-04-07","EPHEMERIS_TYPE":"0","CLASSIFICATION_TYPE":"U","EPOCH":"2022-04-07T17:20:32.811936","COUNTRY_CODE":"US","OBJECT_TYPE":"PAYLOAD","NORAD_CAT_ID":"48103"},{"FILE":"3392478","ECCENTRICITY":"0.00013980","TIME_SYSTEM":"UTC","REF_FRAME":"TEME","ELEMENT_SET_NO":"999","RA_OF_ASC_NODE":"104.9232","REV_AT_EPOCH":"5680","MEAN_MOTION_DDOT":"0.0000000000000","OBJECT_NAME":"STARLINK-2439","DECAY_DATE":null,"SEMIMAJOR_AXIS":"6925.357","INCLINATION":"53.0539","BSTAR":"0.00003079000000","PERIAPSIS":"546.254","LAUNCH_DATE":"2021-04-07","EPHEMERIS_TYPE":"0","CLASSIFICATION_TYPE":"U","EPOCH":"2022-04-07T17:38:28.243968","COUNTRY_CODE":"US","OBJECT_TYPE":"PAYLOAD","NORAD_CAT_ID":"48104","TLE_LINE1":"1 48104U 21027N   22097.73504912  .00000177  00000-0  30790-4 0  9998","APOAPSIS":"548.191","TLE_LINE2":"2 48104  53.0539 104.9232 0001398  66.4422 293.6713 15.06397112 56805","ARG_OF_PERICENTER":"66.4422","CENTER_NAME":"EARTH","RCS_SIZE":"LARGE","MEAN_ANOMALY":"293.6713","OBJECT_ID":"2021-027N","MEAN_ELEMENT_THEORY":"SGP4","GP_ID":"200701757","MEAN_MOTION_DOT":"0.00000177","PERIOD":"95.592","SITE":"AFETR","MEAN_MOTION":"15.06397112"},{"MEAN_ANOMALY":"307.5975","RCS_SIZE":"LARGE","OBJECT_ID":"2021-027P","ARG_OF_PERICENTER":"52.5163","CENTER_NAME":"EARTH","TLE_LINE1":"1 48105U 21027P   22097.57607318  .00006103  00000-0  42837-3 0  9994","APOAPSIS":"548.380","TLE_LINE2":"2 48105  53.0571  50.6312 0001641  52.5163 307.5975 15.06390085 57142","MEAN_MOTION":"15.06390085","MEAN_MOTION_DOT":"0.00006103","PERIOD":"95.593","SITE":"AFETR","MEAN_ELEMENT_THEORY":"SGP4","GP_ID":"200667097","BSTAR":"0.00042837000000","PERIAPSIS":"546.107","INCLINATION":"53.0571","NORAD_CAT_ID":"48105","EPOCH":"2022-04-07T13:49:32.722752","OBJECT_TYPE":"PAYLOAD","COUNTRY_CODE":"US","EPHEMERIS_TYPE":"0","CLASSIFICATION_TYPE":"U","LAUNCH_DATE":"2021-04-07","MEAN_MOTION_DDOT":"0.0000000000000","REV_AT_EPOCH":"5714","RA_OF_ASC_NODE":"50.6312","SEMIMAJOR_AXIS":"6925.379","DECAY_DATE":null,"OBJECT_NAME":"STARLINK-2440","TIME_SYSTEM":"UTC","FILE":"3391965","ECCENTRICITY":"0.00016410","ELEMENT_SET_NO":"999","REF_FRAME":"TEME"},{"ELEMENT_SET_NO":"999","REF_FRAME":"TEME","TIME_SYSTEM":"UTC","FILE":"3392115","ECCENTRICITY":"0.00015700","OBJECT_NAME":"STARLINK-2442","SEMIMAJOR_AXIS":"6925.332","DECAY_DATE":null,"RA_OF_ASC_NODE":"100.1025","MEAN_MOTION_DDOT":"0.0000000000000","REV_AT_EPOCH":"5646","EPHEMERIS_TYPE":"0","CLASSIFICATION_TYPE":"U","LAUNCH_DATE":"2021-04-07","NORAD_CAT_ID":"48106","EPOCH":"2022-04-07T16:36:43.990848","COUNTRY_CODE":"US","OBJECT_TYPE":"PAYLOAD","INCLINATION":"53.0545","BSTAR":"0.00015333000000","PERIAPSIS":"546.110","PERIOD":"95.592","MEAN_MOTION_DOT":"0.00002003","SITE":"AFETR","MEAN_ELEMENT_THEORY":"SGP4","GP_ID":"200670786","MEAN_MOTION":"15.06405456","CENTER_NAME":"EARTH","ARG_OF_PERICENTER":"56.6791","TLE_LINE1":"1 48106U 21027Q   22097.69217582  .00002003  00000-0  15333-3 0  9994","APOAPSIS":"548.284","TLE_LINE2":"2 48106  53.0545 100.1025 0001570  56.6791 303.4348 15.06405456 56461","MEAN_ANOMALY":"303.4348","RCS_SIZE":"LARGE","OBJECT_ID":"2021-027Q"},{"ELEMENT_SET_NO":"999","REF_FRAME":"TEME","TIME_SYSTEM":"UTC","ECCENTRICITY":"0.00014250","FILE":"3391965","OBJECT_NAME":"STARLINK-2443","SEMIMAJOR_AXIS":"6925.336","DECAY_DATE":null,"RA_OF_ASC_NODE":"100.0303","MEAN_MOTION_DDOT":"0.0000000000000","REV_AT_EPOCH":"5646","CLASSIFICATION_TYPE":"U","EPHEMERIS_TYPE":"0","LAUNCH_DATE":"2021-04-07","NORAD_CAT_ID":"48107","COUNTRY_CODE":"US","OBJECT_TYPE":"PAYLOAD","EPOCH":"2022-04-07T16:59:19.358016","INCLINATION":"53.0552","PERIAPSIS":"546.214","BSTAR":"0.00000938860000","SITE":"AFETR","PERIOD":"95.592","MEAN_MOTION_DOT":"-0.00000142","GP_ID":"200667101","MEAN_ELEMENT_THEORY":"SGP4","MEAN_MOTION":"15.06403993","ARG_OF_PERICENTER":"61.0273","CENTER_NAME":"EARTH","TLE_LINE2":"2 48107  53.0552 100.0303 0001425  61.0273 299.0859 15.06403993 56463","TLE_LINE1":"1 48107U 21027R   22097.70786294 -.00000142  00000-0  93886-5 0  9992","APOAPSIS":"548.188","OBJECT_ID":"2021-027R","MEAN_ANOMALY":"299.0859","RCS_SIZE":"LARGE"},{"MEAN_ELEMENT_THEORY":"SGP4","GP_ID":"200701257","PERIOD":"95.592","MEAN_MOTION_DOT":"0.00000050","SITE":"AFETR","MEAN_MOTION":"15.06401486","TLE_LINE1":"1 48108U 21027S   22097.74748647  .00000050  00000-0  22234-4 0  9992","APOAPSIS":"548.144","TLE_LINE2":"2 48108  53.0543 109.8611 0001350  64.5921 295.5208 15.06401486 56721","CENTER_NAME":"EARTH","ARG_OF_PERICENTER":"64.5921","MEAN_ANOMALY":"295.5208","RCS_SIZE":"LARGE","OBJECT_ID":"2021-027S","LAUNCH_DATE":"2021-04-07","EPHEMERIS_TYPE":"0","CLASSIFICATION_TYPE":"U","EPOCH":"2022-04-07T17:56:22.831008","COUNTRY_CODE":"US","OBJECT_TYPE":"PAYLOAD","NORAD_CAT_ID":"48108","INCLINATION":"53.0543","BSTAR":"0.00002223400000","PERIAPSIS":"546.274","OBJECT_NAME":"STARLINK-2444","DECAY_DATE":null,"SEMIMAJOR_AXIS":"6925.344","RA_OF_ASC_NODE":"109.8611","REV_AT_EPOCH":"5672","MEAN_MOTION_DDOT":"0.0000000000000","ELEMENT_SET_NO":"999","REF_FRAME":"TEME","ECCENTRICITY":"0.00013500","FILE":"3392478","TIME_SYSTEM":"UTC"},{"PERIAPSIS":"546.193","BSTAR":"0.00000968570000","INCLINATION":"53.0554","NORAD_CAT_ID":"48109","COUNTRY_CODE":"US","OBJECT_TYPE":"PAYLOAD","EPOCH":"2022-04-07T18:16:17.231520","CLASSIFICATION_TYPE":"U","EPHEMERIS_TYPE":"0","LAUNCH_DATE":"2021-04-07","OBJECT_ID":"2021-027T","RCS_SIZE":"LARGE","MEAN_ANOMALY":"297.3333","ARG_OF_PERICENTER":"62.7803","CENTER_NAME":"EARTH","TLE_LINE2":"2 48109  53.0554 119.7977 0001445  62.7803 297.3333 15.06406525 56596","APOAPSIS":"548.194","TLE_LINE1":"1 48109U 21027T   22097.76131055 -.00000137  00000-0  96857-5 0  9994","MEAN_MOTION":"15.06406525","SITE":"AFETR","PERIOD":"95.592","MEAN_MOTION_DOT":"-0.00000137","GP_ID":"200700006","MEAN_ELEMENT_THEORY":"SGP4","TIME_SYSTEM":"UTC","FILE":"3392478","ECCENTRICITY":"0.00014450","REF_FRAME":"TEME","ELEMENT_SET_NO":"999","MEAN_MOTION_DDOT":"0.0000000000000","REV_AT_EPOCH":"5659","RA_OF_ASC_NODE":"119.7977","SEMIMAJOR_AXIS":"6925.329","DECAY_DATE":null,"OBJECT_NAME":"STARLINK-2445"}];
